[{"OBJECT_NAME":"YAOGAN-30 01","OBJECT_ID":"2016-029A","EPOCH":"2026-03-09T22:16:48.722016","MEAN_MOTION":14.76274788,"ECCENTRICITY":0.00157389,"INCLINATION":97.9148,"RA_OF_ASC_NODE":120.91,"ARG_OF_PERICENTER":189.8779,"MEAN_ANOMALY":170.2124,"EPHEMERIS_TYPE":0,"CLASSIFICATION_TYPE":"U","NORAD_CAT_ID":41473,"ELEMENT_SET_NO":999,"REV_AT_EPOCH":52902,"BSTAR":0.00014079797,"MEAN_MOTION_DOT":9.27e-6,"MEAN_MOTION_DDOT":0},{"OBJECT_NAME":"SDS-1","OBJECT_ID":"2009-002F","EPOCH":"2026-03-09T16:01:06.765024","MEAN_MOTION":14.74384061,"ECCENTRICITY":8.377e-5,"INCLINATION":98.2014,"RA_OF_ASC_NODE":326.7338,"ARG_OF_PERICENTER":204.0572,"MEAN_ANOMALY":156.0597,"EPHEMERIS_TYPE":0,"CLASSIFICATION_TYPE":"U","NORAD_CAT_ID":33497,"ELEMENT_SET_NO":999,"REV_AT_EPOCH":91889,"BSTAR":0.00015762475,"MEAN_MOTION_DOT":9.93e-6,"MEAN_MOTION_DDOT":0}]
